SL-14 R/B               
1 19574U 88093B   25061.42772014  .00001161  00000+0  13246-3 0  9992
2 19574  82.5316  31.3328 0020549 185.2425 299.5775 14.85147113945771
SL-16 R/B               
1 19650U 88102B   25061.57911998  .00000089  00000+0  69362-4 0  9999
2 19650  70.9988 214.4059 0015804 224.0964 135.8900 14.16080838874211
INTERCOSMOS 24          
1 20261U 89080A   25061.39936924  .00001794  00000+0  52161-3 0  9993
2 20261  82.6125 346.4795 1192116  76.2612 296.8082 12.58773069619942
SL-14 R/B               
1 20262U 89080C   25061.46850830  .00001009  00000+0  30720-3 0  9999
2 20262  82.5910  52.1810 1230501 315.4939  35.3433 12.50201977613636
DELTA 1 R/B             
1 20323U 89089B   25061.58441506  .00000822  00000+0  21388-3 0  9997
2 20323  97.1173 322.3797 0068517 216.6881 142.9616 14.50242399841799
ARIANE 40 R/B           
1 20443U 90005H   25061.50675077  .00000708  00000+0  24058-3 0  9994
2 20443  98.3591 127.1852 0009251 240.0477 119.9793 14.39504058839252
DELTA 2 R/B(1)          
1 20453U 90008B   25061.21549256  .00027778  00000+0  73624-3 0  9994
2 20453  35.6132  36.0697 0153664 128.3154 233.1500 15.26243420868731
COSMOS 2058             
1 20465U 90010A   25061.44564156  .00007367  00000+0  48132-3 0  9999
2 20465  82.4836  52.7914 0012353 137.0356 223.1839 15.07617805886085
SL-14 R/B               
1 20466U 90010B   25061.59549511  .00000926  00000+0  11041-3 0  9997
2 20466  82.4988 256.7125 0021408  86.3833 273.9830 14.83088887873323
SL-14 R/B               
1 20511U 90018B   25061.45958047  .00001145  00000+0  14237-3 0  9993
2 20511  82.5217 210.8889 0015348 233.6900 126.2897 14.81675817867459
HST                     
1 20580U 90037B   25061.21062904  .00009645  00000+0  38541-3 0  9999
2 20580  28.4690  49.1595 0001937 341.1764  18.8758 15.23390529716342
SL-16 R/B               
1 20625U 90046B   25061.28394677  .00000384  00000+0  22270-3 0  9994
2 20625  71.0019 359.9824 0013340 159.1254 201.0416 14.14942616795961
COSMOS 2084             
1 20663U 90055A   25061.57898525  .00005792  00000+0  42025-3 0  9997
2 20663  62.7912 161.9545 0077176 143.9242 216.7101 15.02626708880348
SL-6 R/B(2)             
1 20666U 90055D   25061.45823150  .00003812  00000+0  30488-3 0  9990
2 20666  62.7829  77.4165 0043956 172.2235 187.9555 15.01209770882263
SL-8 R/B                
1 20775U 90078B   25061.50113624  .00041564  00000+0  14460-2 0  9997
2 20775  82.9085 222.0268 0419720 172.1863 188.6178 14.73731090754198
SL-8 R/B                
1 21088U 91006B   25061.58396088  .00000197  00000+0  18303-3 0  9990
2 21088  82.9380  86.8657 0022448   1.3750 114.3017 13.77431482712846
OKEAN-3                 
1 21397U 91039A   25061.26762271  .00005016  00000+0  38223-3 0  9993
2 21397  82.5217 336.8368 0015555 151.1474 209.0614 15.01771727809085
COSMOS 2151             
1 21422U 91042A   25061.51670684  .00003325  00000+0  27803-3 0  9993
2 21422  82.4937  82.0823 0011090 230.8330 129.1908 14.98164126807433
SL-14 R/B               
1 21423U 91042B   25061.50420778  .00001048  00000+0  13078-3 0  9999
2 21423  82.4936 209.0862 0017729  28.2881 331.9291 14.81388353797968
ERS-1                   
1 21574U 91050A   25061.55866698  .00000667  00000+0  22972-3 0  9994
2 21574  98.7932  65.3905 0031353 224.5139 135.3528 14.39064783762207
ARIANE 40 R/B           
1 21610U 91050F   25061.59146436  .00000795  00000+0  25274-3 0  9990
2 21610  98.2539 121.7097 0004302 115.7474 244.4161 14.42487358765346
INTERCOSMOS 25          
1 21819U 91086A   25061.39047527  .00004361  00000+0  85871-3 0  9991
2 21819  82.6105 174.8599 1494271 198.6480 155.3688 12.10368384451611
SL-8 R/B                
1 21876U 92008B   25061.47723657  .00000116  00000+0  10336-3 0  9991
2 21876  82.9303 184.5653 0036029  94.5636 334.0527 13.75904752658237
SL-8 R/B                
1 21938U 92020B   25061.56143648  .00000026  00000+0  11158-4 0  9994
2 21938  82.9262  70.1358 0027663 256.0032 223.2600 13.75489441649976
USA 81                  
1 21949U 92023A   25061.22398615  .00000470  00000+0  16714-3 0  9993
2 21949  85.0127 346.3011 0002485 102.1819 257.9652 14.32180561 41472
COSMOS 2219             
1 22219U 92076A   25061.42688827  .00000471  00000+0  27199-3 0  9991
2 22219  71.0589  76.2151 0016572  44.6502 315.5952 14.13997895665757
SL-16 R/B               
1 22220U 92076B   25061.62659778  .00000111  00000+0  79350-4 0  9996
2 22220  70.9981 252.0715 0014824 297.3171 127.5333 14.16778790669134
COSMOS 2221             
1 22236U 92080A   25061.55967644  .00002891  00000+0  26687-3 0  9995
2 22236  82.5015 274.9096 0015072   6.8786 353.2638 14.94223613725183
SL-16 R/B               
1 22285U 92093B   25061.43941523 -.00000132  00000+0 -43064-4 0  9995
2 22285  71.0206  65.6717 0003895 190.8385 169.2654 14.15370463660489
COSMOS 2228             
1 22286U 92094A   25061.52981816  .00004155  00000+0  37693-3 0  9993
2 22286  82.5165 233.0077 0019852 113.4965 246.8346 14.94941395720411
SL-16 R/B               
1 22566U 93016B   25061.58475998 -.00000226  00000+0 -91487-4 0  9993
2 22566  71.0058 276.6721 0010240 182.8775 177.2290 14.15233085649526
COSMOS 2242             
1 22626U 93024A   25061.56874058  .00003751  00000+0  34466-3 0  9994
2 22626  82.5158 262.0126 0018021 114.5246 245.7856 14.94446747724777
SL-16 R/B               
1 22803U 93059B   25061.43304215  .00000339  00000+0  19155-3 0  9995
2 22803  70.9887  76.0941 0015238  52.8342 307.4171 14.17145174626794
ARIANE 40 R/B           
1 22830U 93061H   25061.60477703  .00000539  00000+0  21454-3 0  9997
2 22830  98.5380 131.8408 0009744 308.0783  51.9522 14.32556531640827
COSMOS 2278             
1 23087U 94023A   25061.57618434  .00000490  00000+0  28110-3 0  9997
2 23087  71.0517 233.5600 0010666 242.0707 117.9336 14.14261034592195
SL-16 R/B               
1 23088U 94023B   25061.58463275  .00000419  00000+0  24113-3 0  9990
2 23088  70.9996 132.3034 0002722 183.7237 176.3865 14.14945414593452
SL-16 R/B               
1 23343U 94074B   25061.60399176  .00001056  00000+0  15025-3 0  9991
2 23343  97.7543 101.6891 0006597   5.1413 109.7874 14.78844703632248
SL-16 R/B               
1 23405U 94077B   25061.42861407  .00000139  00000+0  95750-4 0  9999
2 23405  70.9825  55.6116 0003253 323.3334  36.7566 14.15496245563553
ARIANE 40+ R/B          
1 23561U 95021B   25061.20638215  .00000776  00000+0  26351-3 0  9994
2 23561  98.4944 131.7879 0007115 168.8886 254.4980 14.39398037565658
SL-16 R/B               
1 23705U 95058B   25061.55843234 -.00000177  00000+0 -66090-4 0  9993
2 23705  71.0191 241.4995 0013953 318.6535  41.3530 14.15427244515195
SL-16 R/B               
1 24298U 96051B   25061.57369787 -.00000146  00000+0 -52443-4 0  9996
2 24298  70.7745 242.6660 0017594 318.0927  41.8845 14.12435516469101
ORBVIEW 2 (SEASTAR)     
1 24883U 97037A   25061.37225112  .00000814  00000+0  30126-3 0  9995
2 24883  98.8078 211.8920 0003139  83.8219 276.3323 14.35112980455067
SL-16 R/B               
1 25400U 98043G   25061.42982468  .00000226  00000+0  11348-3 0  9991
2 25400  98.7766   8.2966 0010247  20.6319 339.5272 14.25928904385935
SL-16 R/B               
1 25407U 98045B   25061.61011760  .00000362  00000+0  20741-3 0  9997
2 25407  71.0089 244.0043 0009384 240.2869 119.7321 14.16114277374425
ISS (ZARYA)             
1 25544U 98067A   25061.57006296  .00014645  00000+0  26707-3 0  9993
2 25544  51.6363 115.1019 0006087 335.9132 188.1830 15.49668581498622
CZ-4B R/B               
1 25732U 99025C   25061.59035402  .00000179  00000+0  10791-3 0  9993
2 25732  98.7155 108.5998 0036614 335.8828 141.4522 14.18146192335426
OKEAN-O                 
1 25860U 99039A   25061.58880063  .00001518  00000+0  21005-3 0  9998
2 25860  97.9985 119.1815 0001900  95.3380 264.8048 14.79515591379350
SL-16 R/B               
1 25861U 99039B   25061.59673755  .00001338  00000+0  17930-3 0  9990
2 25861  98.0516 115.1187 0015525  28.3160 331.8893 14.81037584381777
DELTA 2 R/B             
1 25876U 99041E   25061.24301361  .00004258  00000+0  72717-3 0  9990
2 25876  51.7652 347.1055 0508876 330.5485  26.7635 14.10310882310442
HELIOS 1B               
1 25977U 99064A   25061.61943325  .00002673  00000+0  31269-3 0  9996
2 25977  98.2097 307.6506 0001470 131.5014 228.6327 14.85977836629972
TERRA                   
1 25994U 99068A   25061.58133866  .00001116  00000+0  23918-3 0  9999
2 25994  98.0124 123.1120 0000970 275.7062 193.9715 14.60507097340753
SL-16 R/B               
1 26070U 00006B   25061.60006382  .00000300  00000+0  17666-3 0  9991
2 26070  71.0027 160.1694 0015577  21.0022 339.1738 14.15746616295891
TITAN 4B R/B            
1 26474U 00047B   25061.23214691  .00006827  00000+0  46743-3 0  9995
2 26474  67.9935   5.0269 0039624 100.4352 260.1265 15.06008073336762
ENVISAT                 
1 27386U 02009A   25061.46845648  .00000362  00000+0  13153-3 0  9992
2 27386  98.3210  20.1328 0001359  86.7823  23.4301 14.38854161205640
IDEFIX & ARIANE 42P R/B 
1 27422U 02021B   25061.40811426  .00000738  00000+0  29894-3 0  9994
2 27422  98.5529   0.3373 0011322 198.7137 161.3631 14.30663904190780
AQUA                    
1 27424U 02022A   25061.58268000  .00002247  00000+0  46907-3 0  9991
2 27424  98.3661  18.6927 0001814  60.1519 355.0175 14.60883942214382
CZ-4B R/B               
1 27432U 02024C   25061.59710968  .00000125  00000+0  87469-4 0  9990
2 27432  98.9394 110.7099 0050110   0.1132 153.5666 14.14453701176717
MIDORI II (ADEOS-II)    
1 27597U 02056A   25061.47323060  .00000735  00000+0  30869-3 0  9995
2 27597  98.7262  13.6308 0001711  47.9382 312.1944 14.28901290157137
H-2A R/B                
1 27601U 02056E   25061.49576684  .00000612  00000+0  23058-3 0  9991
2 27601  98.2670  32.3251 0070288 190.1217 279.9601 14.33372572160785
